{
  "type": "FeatureCollection",
  "name": "PixelMap Kawasaki landmark entities",
  "properties": {
    "schema": "pixelmap-landmark-entities/1",
    "source": "OpenStreetMap",
    "generated_at": "2026-08-20T00:00:00Z"
  },
  "features": [
    {
      "type": "Feature",
      "id": "way/690489941",
      "geometry": {
        "type": "Polygon",
        "coordinates": [[
          [139.6984741, 35.5287432],
          [139.6984795, 35.5287452],
          [139.6985225, 35.5287721],
          [139.6985715, 35.5288055],
          [139.6986058, 35.5288288],
          [139.6986119, 35.5288341],
          [139.6986988, 35.5289208],
          [139.6987777, 35.5288516],
          [139.6986580, 35.5287382],
          [139.6986115, 35.5286961],
          [139.6984684, 35.5286390],
          [139.6986070, 35.5283695],
          [139.6984471, 35.5283180],
          [139.6986237, 35.5279759],
          [139.6986174, 35.5279403],
          [139.6973422, 35.5272588],
          [139.6973020, 35.5272588],
          [139.6969477, 35.5277203],
          [139.6969801, 35.5277418],
          [139.6970690, 35.5278000],
          [139.6969879, 35.5279024],
          [139.6970070, 35.5279132],
          [139.6972845, 35.5280518],
          [139.6972951, 35.5280573],
          [139.6972030, 35.5281743],
          [139.6971645, 35.5281813],
          [139.6969385, 35.5281022],
          [139.6969005, 35.5281612],
          [139.6968631, 35.5281448],
          [139.6967694, 35.5281462],
          [139.6967550, 35.5281542],
          [139.6973383, 35.5287709],
          [139.6976338, 35.5285788],
          [139.6980800, 35.5290333],
          [139.6981063, 35.5290601],
          [139.6983330, 35.5289122],
          [139.6983035, 35.5288818],
          [139.6984691, 35.5287519],
          [139.6984741, 35.5287432]
        ]]
      },
      "properties": {
        "id": "way/690489941",
        "osm_type": "way",
        "osm_id": 690489941,
        "name": "ラチッタデッラ",
        "name:ja": "ラチッタデッラ",
        "name:en": "LA CITTADELLA",
        "aliases": ["ラ チッタデッラ", "ラ・チッタデッラ", "LA CITTADELLA"],
        "role": "complex",
        "class": "entertainment_complex",
        "render_class": "mall",
        "category": "landmark",
        "area_m2": 19024,
        "minzoom": 13,
        "detail_zoom": 16,
        "max_signature_children": 1,
        "icon_size": "L",
        "icon_anchor": [139.6981233408, 35.5286504965],
        "icon_anchor_candidates": [
          [139.6981233408, 35.5286504965],
          [139.6983330, 35.5287800],
          [139.6976338, 35.5285788]
        ],
        "landuse": "retail"
      }
    },
    {
      "type": "Feature",
      "id": "way/158883031",
      "geometry": {
        "type": "Polygon",
        "coordinates": [[
          [139.6972845, 35.5280518],
          [139.6970070, 35.5279132],
          [139.6970087, 35.5278769],
          [139.6970690, 35.5278000],
          [139.6969801, 35.5277418],
          [139.6971329, 35.5275676],
          [139.6974652, 35.5277648],
          [139.6974532, 35.5277854],
          [139.6974938, 35.5278136],
          [139.6973568, 35.5279695],
          [139.6972845, 35.5280518]
        ]]
      },
      "properties": {
        "id": "way/158883031",
        "osm_type": "way",
        "osm_id": 158883031,
        "name": "CLUB CITTA'",
        "name:ja": "CLUB CITTA'",
        "aliases": ["CLUB CITTA’", "CLUB CITTA", "クラブチッタ"],
        "role": "venue_candidate",
        "parent_id": "way/690489941",
        "class": "live_venue",
        "render_class": "theatre",
        "category": "landmark",
        "amenity": "theatre",
        "building": "yes",
        "independent_building": true,
        "area_m2": 1409,
        "minzoom": 14,
        "icon_size": "M",
        "icon_anchor": [139.6972369, 35.5278097]
      }
    },
    {
      "type": "Feature",
      "id": "node/995971596",
      "geometry": {
        "type": "Point",
        "coordinates": [139.6978750, 35.5278506]
      },
      "properties": {
        "id": "node/995971596",
        "osm_type": "node",
        "osm_id": 995971596,
        "name": "Cinecittà",
        "name:ja": "チネチッタ",
        "role": "venue_candidate",
        "parent_id": "way/690489941",
        "class": "cinema",
        "render_class": "cinema",
        "category": "landmark",
        "amenity": "cinema",
        "independent_building": false,
        "area_m2": 0,
        "minzoom": 14,
        "icon_size": "M",
        "icon_anchor": [139.6978750, 35.5278506]
      }
    }
  ]
}
